[{"OBJECT_NAME":"AMOS-17","OBJECT_ID":"2019-050A","EPOCH":"2026-04-05T19:40:18.820128","MEAN_MOTION":1.00273146,"ECCENTRICITY":0.0001537,"INCLINATION":0.0185,"RA_OF_ASC_NODE":280.3741,"ARG_OF_PERICENTER":108.7469,"MEAN_ANOMALY":117.0578,"EPHEMERIS_TYPE":0,"CLASSIFICATION_TYPE":"U","NORAD_CAT_ID":44479,"ELEMENT_SET_NO":999,"REV_AT_EPOCH":2446,"BSTAR":0,"MEAN_MOTION_DOT":1.11e-6,"MEAN_MOTION_DDOT":0}]
