AMOS-17                 
1 44479U 19050A   26095.81966227  .00000111  00000+0  00000+0 0  9997
2 44479   0.0185 280.3741 0001537 108.7469 117.0578  1.00273146 24469
